[{"OBJECT_NAME":"STARLINK-3975","OBJECT_ID":"2022-052Y","EPOCH":"2026-03-09T20:53:41.973216","MEAN_MOTION":15.08853082,"ECCENTRICITY":0.00012146,"INCLINATION":53.2156,"RA_OF_ASC_NODE":283.3126,"ARG_OF_PERICENTER":89.4731,"MEAN_ANOMALY":270.64,"EPHEMERIS_TYPE":0,"CLASSIFICATION_TYPE":"U","NORAD_CAT_ID":52620,"ELEMENT_SET_NO":999,"REV_AT_EPOCH":21080,"BSTAR":0.00011227624,"MEAN_MOTION_DOT":1.5e-5,"MEAN_MOTION_DDOT":0},{"OBJECT_NAME":"LEMUR-2-STELLA","OBJECT_ID":"2024-149BT","EPOCH":"2026-03-09T17:26:15.951264","MEAN_MOTION":15.09464064,"ECCENTRICITY":0.0001299,"INCLINATION":97.6764,"RA_OF_ASC_NODE":150.9122,"ARG_OF_PERICENTER":95.1117,"MEAN_ANOMALY":265.026,"EPHEMERIS_TYPE":0,"CLASSIFICATION_TYPE":"U","NORAD_CAT_ID":60533,"ELEMENT_SET_NO":999,"REV_AT_EPOCH":8548,"BSTAR":0.00085776432,"MEAN_MOTION_DOT":0.00013685,"MEAN_MOTION_DDOT":0}]
